TIGER-8                 
1 59120U 24043Y   26200.99141991  .00005470  00000+0  11703-3 0  9993
2 59120  97.5582 350.9315 0008872  88.6730 271.5535 15.45219769132854
TIGER-7                 
1 59141U 24043AV  26200.94810049  .00006604  00000+0  12204-3 0  9995
2 59141  97.5521 353.4215 0006649  63.6255 296.5678 15.49412331133043
