{"fetched_at":"2026-07-20T18:29:50.388Z","source":"https://celestrak.org/NORAD/elements/gp.php?NAME=TIGER&FORMAT=JSON","constellation":"oq-technology","records":[{"OBJECT_NAME":"TIGER-8","OBJECT_ID":"2024-043Y","EPOCH":"2026-07-19T23:47:38.680224","CLASSIFICATION_TYPE":"U","MEAN_MOTION":15.45219769,"ECCENTRICITY":0.00088726,"INCLINATION":97.5582,"RA_OF_ASC_NODE":350.9315,"ARG_OF_PERICENTER":88.673,"MEAN_ANOMALY":271.5535,"EPHEMERIS_TYPE":0,"NORAD_CAT_ID":59120,"ELEMENT_SET_NO":999,"REV_AT_EPOCH":13285,"BSTAR":0.00011703466,"MEAN_MOTION_DOT":0.0000547,"MEAN_MOTION_DDOT":0},{"OBJECT_NAME":"TIGER-7","OBJECT_ID":"2024-043AV","EPOCH":"2026-07-19T22:45:15.882336","CLASSIFICATION_TYPE":"U","MEAN_MOTION":15.49412331,"ECCENTRICITY":0.00066496,"INCLINATION":97.5521,"RA_OF_ASC_NODE":353.4215,"ARG_OF_PERICENTER":63.6255,"MEAN_ANOMALY":296.5678,"EPHEMERIS_TYPE":0,"NORAD_CAT_ID":59141,"ELEMENT_SET_NO":999,"REV_AT_EPOCH":13304,"BSTAR":0.00012204312,"MEAN_MOTION_DOT":0.00006604,"MEAN_MOTION_DDOT":0}]}
